ONEWEB-0283             
1 49001U 21060AL  25276.29161850  .00000009  00000+0 -97218-5 0  9998
2 49001  87.8966 279.9723 0001759  93.4038 266.7294 13.16592937205816
ONEWEB-0284             
1 49002U 21060AM  25276.28527234  .00000039  00000+0  69114-4 0  9995
2 49002  87.8979 279.9569 0002217  97.0875 263.0508 13.16592176205798
ONEWEB-0285             
1 49075U 21075A   25276.29353087 -.00000270  00000+0 -78510-3 0  9993
2 49075  87.8936  41.6913 0001736 100.6624 259.4700 13.12440873201517
ONEWEB-0286             
1 49076U 21075B   25276.27541571  .00000172  00000+0  44241-3 0  9992
2 49076  87.8943  41.7304 0001817  93.4657 266.6679 13.12442539200869
ONEWEB-0287             
1 49077U 21075C   25275.89491094  .00000016  00000+0  87906-5 0  9998
2 49077  87.9084  57.0312 0001914  88.0331 272.1020 13.17650165199740
ONEWEB-0288             
1 49078U 21075D   25275.79380807  .00000364  00000+0  97645-3 0  9992
2 49078  87.8936  41.7858 0001913  99.5392 260.5953 13.12443488201422
ONEWEB-0289             
1 49079U 21075E   25275.93357708 -.00000012  00000+0 -65060-4 0  9992
2 49079  87.9072  57.0466 0001986 106.3765 253.7585 13.17650345200321
ONEWEB-0290             
1 49080U 21075F   25275.67892289  .00000098  00000+0  21917-3 0  9997
2 49080  87.9078  57.0533 0001919 115.0300 245.1031 13.17648471199709
